[{"OBJECT_NAME":"FLOCK 4G-18","OBJECT_ID":"2025-009BZ","EPOCH":"2026-03-09T04:35:14.656704","MEAN_MOTION":15.27241676,"ECCENTRICITY":0.00041001,"INCLINATION":97.4054,"RA_OF_ASC_NODE":150.5008,"ARG_OF_PERICENTER":335.7331,"MEAN_ANOMALY":24.3715,"EPHEMERIS_TYPE":0,"CLASSIFICATION_TYPE":"U","NORAD_CAT_ID":62680,"ELEMENT_SET_NO":999,"REV_AT_EPOCH":12126,"BSTAR":0.0004431856,"MEAN_MOTION_DOT":0.00011766,"MEAN_MOTION_DDOT":0},{"OBJECT_NAME":"STARLINK-36141","OBJECT_ID":"2025-294AD","EPOCH":"2026-03-09T23:11:36.115872","MEAN_MOTION":15.27597691,"ECCENTRICITY":0.00014316,"INCLINATION":43.0074,"RA_OF_ASC_NODE":36.3312,"ARG_OF_PERICENTER":240.6042,"MEAN_ANOMALY":119.4667,"EPHEMERIS_TYPE":0,"CLASSIFICATION_TYPE":"U","NORAD_CAT_ID":67057,"ELEMENT_SET_NO":999,"REV_AT_EPOCH":1484,"BSTAR":0.0010377835,"MEAN_MOTION_DOT":0.00028421,"MEAN_MOTION_DDOT":0}]
